1 25590U 98076A   20007.44979991  .00000027  00000-0  12356-4 0  9992
2 25590  82.9347 145.4832 0032002 165.8205 254.4650 13.72973908 54135
1 26818U 01023A   20006.79932814  .00000011  00000-0 -44689-5 0  9991
2 26818  82.9270 165.6300 0033987 118.5779 241.8806 13.73940314931731
1 27436U 02026A   20006.83991881  .00000009  00000-0 -65189-5 0  9991
2 27436  82.9518 110.4343 0045917 347.7325 130.7452 13.74941074883719
1 27818U 03023A   20006.83523938  .00000022  00000-0  74703-5 0  9993
2 27818  82.9484  69.1468 0031738  13.0019 347.1947 13.72173771830974
1 28380U 04028A   20006.54722250  .00000013  00000-0 -22413-5 0  9992
2 28380  82.9600  17.4191 0039459 356.1682   3.9173 13.76072533776361
1 28521U 05002A   20007.15001850  .00000015  00000-0 -78821-6 0  9993
2 28521  82.9491  22.7948 0039590 195.4319 164.5635 13.87617769757805
1 32052U 07038A   20006.90284441  .00000020  00000-0  48407-5 0  9990
2 32052  82.9812 139.9014 0037625 327.5447  32.3395 13.74922328618254
1 35635U 09039A   20007.49245177  .00000030  00000-0  11216-4 0  9999
2 35635  82.9557  10.5455 0019713 145.6395 214.6052 13.89647220530813
1 36519U 10017A   20007.23982268  .00000075  00000-0  66473-4 0  9994
2 36519  82.9595 178.1274 0036215 175.9620 184.1834 13.71440244485490
